SKYSAT-A                
1 39418U 13066C   26189.61876987  .00002299  00000+0  13293-3 0  9991
2 39418  97.3804 238.3329 0019964 237.3993 122.5311 15.13092579691725
SKYSAT-B                
1 40072U 14037D   26189.84448721  .00000919  00000+0  10667-3 0  9993
2 40072  98.3850 150.0462 0005061 193.9325 166.1752 14.88081935649183
SKYSAT-C1               
1 41601U 16040C   26189.64295157  .00006281  00000+0  17749-3 0  9995
2 41601  96.9561 220.2029 0000989   9.6303 350.4961 15.36672149561165
SKYSAT-C4               
1 41771U 16058B   26189.84513396  .00012121  00000+0  22327-3 0  9990
2 41771  96.9171 210.7187 0003255 127.7918 232.3630 15.49287157548826
SKYSAT-C5               
1 41772U 16058C   26189.94805379  .00006085  00000+0  18593-3 0  9999
2 41772  97.0462 229.6183 0002273 173.8835 186.2437 15.34224995547080
SKYSAT-C2               
1 41773U 16058D   26189.99420614  .00008655  00000+0  20102-3 0  9994
2 41773  97.0167 211.2736 0002219  17.2519 342.8804 15.42580195548416
SKYSAT-C3               
1 41774U 16058E   26189.92213449  .00017034  00000+0  26955-3 0  9997
2 41774  96.9003 219.9438 0002103 133.9059 226.2370 15.53498704549482
SKYSAT-C11              
1 42987U 17068A   26189.88816509  .00022222  00000+0  28606-3 0  9997
2 42987  97.4370 339.6849 0000805 165.4827 194.6453 15.59069230486628
SKYSAT-C10              
1 42988U 17068B   26189.93751486  .00007299  00000+0  21716-3 0  9998
2 42988  97.4524 327.0051 0001345 108.5919 251.5470 15.35030713485692
SKYSAT-C9               
1 42989U 17068C   26189.91566431  .00009180  00000+0  21637-3 0  9994
2 42989  97.4443 328.1278 0009097  64.5964 295.6223 15.42107438486108
SKYSAT-C8               
1 42990U 17068D   26189.94055191  .00007060  00000+0  19482-3 0  9995
2 42990  97.4544 326.8920 0001224  99.6085 260.5298 15.37407524485653
SKYSAT-C7               
1 42991U 17068E   26189.93484174  .00007020  00000+0  19393-3 0  9999
2 42991  97.4552 327.8770 0006298  41.8557 318.3168 15.37359307485716
SKYSAT-C6               
1 42992U 17068F   26189.93137915  .00006263  00000+0  19223-3 0  9998
2 42992  97.4592 327.7547 0005147 104.3189 255.8626 15.34096798485656
SKYSAT-C12              
1 43797U 18099AR  26189.86142550  .00013388  00000+0  24335-3 0  9996
2 43797  96.9263 212.2345 0005771  84.2725 275.9186 15.49631028425215
