{"fetched_at":"2026-07-09T07:59:46.220Z","source":"https://celestrak.org/NORAD/elements/gp.php?GROUP=planet&FORMAT=JSON","constellation":"skysat","records":[{"OBJECT_NAME":"SKYSAT-A","OBJECT_ID":"2013-066C","EPOCH":"2026-07-08T14:51:01.716768","CLASSIFICATION_TYPE":"U","MEAN_MOTION":15.13092579,"ECCENTRICITY":0.00199648,"INCLINATION":97.3804,"RA_OF_ASC_NODE":238.3329,"ARG_OF_PERICENTER":237.3993,"MEAN_ANOMALY":122.5311,"EPHEMERIS_TYPE":0,"NORAD_CAT_ID":39418,"ELEMENT_SET_NO":999,"REV_AT_EPOCH":69172,"BSTAR":0.00013292809,"MEAN_MOTION_DOT":0.00002299,"MEAN_MOTION_DDOT":0},{"OBJECT_NAME":"SKYSAT-B","OBJECT_ID":"2014-037D","EPOCH":"2026-07-08T20:16:03.694944","CLASSIFICATION_TYPE":"U","MEAN_MOTION":14.88081935,"ECCENTRICITY":0.00050615,"INCLINATION":98.385,"RA_OF_ASC_NODE":150.0462,"ARG_OF_PERICENTER":193.9325,"MEAN_ANOMALY":166.1752,"EPHEMERIS_TYPE":0,"NORAD_CAT_ID":40072,"ELEMENT_SET_NO":999,"REV_AT_EPOCH":64918,"BSTAR":0.00010666731,"MEAN_MOTION_DOT":0.00000919,"MEAN_MOTION_DDOT":0},{"OBJECT_NAME":"SKYSAT-C1","OBJECT_ID":"2016-040C","EPOCH":"2026-07-08T15:25:51.015648","CLASSIFICATION_TYPE":"U","MEAN_MOTION":15.36672149,"ECCENTRICITY":0.00009892,"INCLINATION":96.9561,"RA_OF_ASC_NODE":220.2029,"ARG_OF_PERICENTER":9.6303,"MEAN_ANOMALY":350.4961,"EPHEMERIS_TYPE":0,"NORAD_CAT_ID":41601,"ELEMENT_SET_NO":999,"REV_AT_EPOCH":56116,"BSTAR":0.00017748704,"MEAN_MOTION_DOT":0.00006281,"MEAN_MOTION_DDOT":0},{"OBJECT_NAME":"SKYSAT-C4","OBJECT_ID":"2016-058B","EPOCH":"2026-07-08T20:16:59.574144","CLASSIFICATION_TYPE":"U","MEAN_MOTION":15.49287157,"ECCENTRICITY":0.00032554,"INCLINATION":96.9171,"RA_OF_ASC_NODE":210.7187,"ARG_OF_PERICENTER":127.7918,"MEAN_ANOMALY":232.363,"EPHEMERIS_TYPE":0,"NORAD_CAT_ID":41771,"ELEMENT_SET_NO":999,"REV_AT_EPOCH":54882,"BSTAR":0.00022326911,"MEAN_MOTION_DOT":0.00012121,"MEAN_MOTION_DDOT":0},{"OBJECT_NAME":"SKYSAT-C5","OBJECT_ID":"2016-058C","EPOCH":"2026-07-08T22:45:11.847456","CLASSIFICATION_TYPE":"U","MEAN_MOTION":15.34224995,"ECCENTRICITY":0.00022731,"INCLINATION":97.0462,"RA_OF_ASC_NODE":229.6183,"ARG_OF_PERICENTER":173.8835,"MEAN_ANOMALY":186.2437,"EPHEMERIS_TYPE":0,"NORAD_CAT_ID":41772,"ELEMENT_SET_NO":999,"REV_AT_EPOCH":54708,"BSTAR":0.00018593331,"MEAN_MOTION_DOT":0.00006085,"MEAN_MOTION_DDOT":0},{"OBJECT_NAME":"SKYSAT-C2","OBJECT_ID":"2016-058D","EPOCH":"2026-07-08T23:51:39.410496","CLASSIFICATION_TYPE":"U","MEAN_MOTION":15.42580195,"ECCENTRICITY":0.00022198,"INCLINATION":97.0167,"RA_OF_ASC_NODE":211.2736,"ARG_OF_PERICENTER":17.2519,"MEAN_ANOMALY":342.8804,"EPHEMERIS_TYPE":0,"NORAD_CAT_ID":41773,"ELEMENT_SET_NO":999,"REV_AT_EPOCH":54841,"BSTAR":0.00020101756,"MEAN_MOTION_DOT":0.00008655,"MEAN_MOTION_DDOT":0},{"OBJECT_NAME":"SKYSAT-C3","OBJECT_ID":"2016-058E","EPOCH":"2026-07-08T22:07:52.419936","CLASSIFICATION_TYPE":"U","MEAN_MOTION":15.53498704,"ECCENTRICITY":0.0002103,"INCLINATION":96.9003,"RA_OF_ASC_NODE":219.9438,"ARG_OF_PERICENTER":133.9059,"MEAN_ANOMALY":226.237,"EPHEMERIS_TYPE":0,"NORAD_CAT_ID":41774,"ELEMENT_SET_NO":999,"REV_AT_EPOCH":54948,"BSTAR":0.00026954618,"MEAN_MOTION_DOT":0.00017034,"MEAN_MOTION_DDOT":0},{"OBJECT_NAME":"SKYSAT-C11","OBJECT_ID":"2017-068A","EPOCH":"2026-07-08T21:18:57.463776","CLASSIFICATION_TYPE":"U","MEAN_MOTION":15.5906923,"ECCENTRICITY":0.0000805,"INCLINATION":97.437,"RA_OF_ASC_NODE":339.6849,"ARG_OF_PERICENTER":165.4827,"MEAN_ANOMALY":194.6453,"EPHEMERIS_TYPE":0,"NORAD_CAT_ID":42987,"ELEMENT_SET_NO":999,"REV_AT_EPOCH":48662,"BSTAR":0.00028605745,"MEAN_MOTION_DOT":0.00022222,"MEAN_MOTION_DDOT":0},{"OBJECT_NAME":"SKYSAT-C10","OBJECT_ID":"2017-068B","EPOCH":"2026-07-08T22:30:01.283904","CLASSIFICATION_TYPE":"U","MEAN_MOTION":15.35030713,"ECCENTRICITY":0.00013454,"INCLINATION":97.4524,"RA_OF_ASC_NODE":327.0051,"ARG_OF_PERICENTER":108.5919,"MEAN_ANOMALY":251.547,"EPHEMERIS_TYPE":0,"NORAD_CAT_ID":42988,"ELEMENT_SET_NO":999,"REV_AT_EPOCH":48569,"BSTAR":0.00021716341,"MEAN_MOTION_DOT":0.00007299,"MEAN_MOTION_DDOT":0},{"OBJECT_NAME":"SKYSAT-C9","OBJECT_ID":"2017-068C","EPOCH":"2026-07-08T21:58:33.396384","CLASSIFICATION_TYPE":"U","MEAN_MOTION":15.42107438,"ECCENTRICITY":0.0009097,"INCLINATION":97.4443,"RA_OF_ASC_NODE":328.1278,"ARG_OF_PERICENTER":64.5964,"MEAN_ANOMALY":295.6223,"EPHEMERIS_TYPE":0,"NORAD_CAT_ID":42989,"ELEMENT_SET_NO":999,"REV_AT_EPOCH":48610,"BSTAR":0.00021637147,"MEAN_MOTION_DOT":0.0000918,"MEAN_MOTION_DDOT":0},{"OBJECT_NAME":"SKYSAT-C8","OBJECT_ID":"2017-068D","EPOCH":"2026-07-08T22:34:23.685024","CLASSIFICATION_TYPE":"U","MEAN_MOTION":15.37407524,"ECCENTRICITY":0.00012242,"INCLINATION":97.4544,"RA_OF_ASC_NODE":326.892,"ARG_OF_PERICENTER":99.6085,"MEAN_ANOMALY":260.5298,"EPHEMERIS_TYPE":0,"NORAD_CAT_ID":42990,"ELEMENT_SET_NO":999,"REV_AT_EPOCH":48565,"BSTAR":0.00019481669,"MEAN_MOTION_DOT":0.0000706,"MEAN_MOTION_DDOT":0},{"OBJECT_NAME":"SKYSAT-C7","OBJECT_ID":"2017-068E","EPOCH":"2026-07-08T22:26:10.326336","CLASSIFICATION_TYPE":"U","MEAN_MOTION":15.37359307,"ECCENTRICITY":0.00062985,"INCLINATION":97.4552,"RA_OF_ASC_NODE":327.877,"ARG_OF_PERICENTER":41.8557,"MEAN_ANOMALY":318.3168,"EPHEMERIS_TYPE":0,"NORAD_CAT_ID":42991,"ELEMENT_SET_NO":999,"REV_AT_EPOCH":48571,"BSTAR":0.00019393402,"MEAN_MOTION_DOT":0.0000702,"MEAN_MOTION_DDOT":0},{"OBJECT_NAME":"SKYSAT-C6","OBJECT_ID":"2017-068F","EPOCH":"2026-07-08T22:21:11.158560","CLASSIFICATION_TYPE":"U","MEAN_MOTION":15.34096798,"ECCENTRICITY":0.00051476,"INCLINATION":97.4592,"RA_OF_ASC_NODE":327.7547,"ARG_OF_PERICENTER":104.3189,"MEAN_ANOMALY":255.8626,"EPHEMERIS_TYPE":0,"NORAD_CAT_ID":42992,"ELEMENT_SET_NO":999,"REV_AT_EPOCH":48565,"BSTAR":0.00019222962,"MEAN_MOTION_DOT":0.00006263,"MEAN_MOTION_DDOT":0},{"OBJECT_NAME":"SKYSAT-C12","OBJECT_ID":"2018-099AR","EPOCH":"2026-07-08T20:40:27.163200","CLASSIFICATION_TYPE":"U","MEAN_MOTION":15.49631028,"ECCENTRICITY":0.00057717,"INCLINATION":96.9263,"RA_OF_ASC_NODE":212.2345,"ARG_OF_PERICENTER":84.2725,"MEAN_ANOMALY":275.9186,"EPHEMERIS_TYPE":0,"NORAD_CAT_ID":43797,"ELEMENT_SET_NO":999,"REV_AT_EPOCH":42521,"BSTAR":0.00024334789,"MEAN_MOTION_DOT":0.00013388,"MEAN_MOTION_DDOT":0}]}
